ATLAS CENTAUR 2         
1 00694U 63047A   26194.35990257  .00000685  00000+0  72298-4 0  9991
2 00694  30.3509 213.0218 0545699 108.3355 257.7366 14.12563263149408
THOR AGENA D R/B        
1 00733U 64002A   26194.66984484  .00000073  00000+0  43440-4 0  9994
2 00733  99.1155 214.8301 0031792 251.1661 108.6073 14.34075612256357
SL-3 R/B                
1 00877U 64053B   26194.74432367  .00000032  00000+0  30578-4 0  9999
2 00877  65.0780 321.6431 0080317 252.7711 106.4587 14.61439092285212
SL-8 R/B                
1 02802U 67045B   26194.86601897  .00000117  00000+0  39918-4 0  9993
2 02802  74.0111 112.4317 0063011  89.4583 271.3794 14.45694984107257
SL-8 R/B                
1 03230U 68040B   26194.79224145  .00001220  00000+0  91036-4 0  9999
2 03230  74.0292  55.8744 0025149 204.2762 155.7244 15.03936370108960
OAO 2                   
1 03597U 68110A   26194.33791983  .00000099  00000+0  31855-4 0  9998
2 03597  34.9935 283.6648 0004950 128.4638 231.6497 14.47361414 37317
ISIS 1                  
1 03669U 69009A   26194.83489690  .00000035  00000+0  17934-4 0  9992
2 03669  88.4450 141.4735 1707124 194.4010 160.1877 11.30436447362780
SERT 2                  
1 04327U 70009A   26194.76383448 -.00000024  00000+0  24299-4 0  9993
2 04327  99.2840 131.0509 0004478 192.8831 228.5575 13.58740904797013
SL-3 R/B                
1 05118U 71028B   26194.80643536  .00039226  00000+0  29329-3 0  9999
2 05118  81.2313 254.9669 0014588 186.7102 173.3964 15.72356815  8427
ASTEX 1                 
1 05560U 71089A   26194.55645650  .00000207  00000+0  52736-4 0  9994
2 05560  92.7004 192.3482 0016548  27.6183 332.5898 14.50870752880553
SL-8 R/B                
1 05730U 71119B   26194.70219105  .00003953  00000+0  20355-3 0  9998
2 05730  73.8887 299.7520 0542819 240.3836 114.2207 14.39721678673615
OAO 3 (COPERNICUS)      
1 06153U 72065A   26194.35523248  .00000143  00000+0  33641-4 0  9997
2 06153  35.0062 301.3016 0005948 109.9719 291.6079 14.60074280864575
ATLAS CENTAUR R/B       
1 06155U 72065B   26194.69162668  .00000368  00000+0  53144-4 0  9990
2 06155  35.0017 287.1560 0033703 350.0814   9.9219 14.77964526859914
SL-8 R/B                
1 08459U 75112B   26194.88974257  .00000117  00000+0  47189-4 0  9995
2 08459  74.0606 146.7498 0016254 209.8592 150.1637 14.38257777650019
SL-3 R/B                
1 10114U 77057B   26194.78227296  .00006513  00000+0  12473-3 0  9992
2 10114  97.5845  12.6226 0007045 175.1832 184.9487 15.48393200687826
SEASAT 1                
1 10967U 78064A   26194.52334360  .00000034  00000+0  47848-4 0  9997
2 10967 108.0181  29.5752 0001131 253.8815 106.2206 14.46259595524707
SL-14 R/B               
1 11267U 79011B   26194.86725588  .00000251  00000+0  22145-4 0  9991
2 11267  82.5253 336.8329 0015914   1.6101 358.5167 14.92037402547594
SL-8 R/B                
1 11574U 79089B   26194.62978561  .00000081  00000+0  32439-4 0  9990
2 11574  74.0670 217.9069 0015925 353.0105   7.0827 14.42414308454263
SL-14 R/B               
1 11672U 80005B   26194.49375396  .00000300  00000+0  27658-4 0  9992
2 11672  82.5136 187.8854 0017306 102.7051 257.6104 14.91049174495236
SL-8 R/B                
1 12139U 81003B   26194.44681784  .00011717  00000+0  27796-3 0  9992
2 12139  82.9359 173.3607 0250148  99.6742 263.2844 15.15024290333690
SL-3 R/B                
1 12465U 81046B   26194.88172414  .00007533  00000+0  15972-3 0  9998
2 12465  81.2314 137.8990 0015836 302.2368  57.7341 15.44761200457893
SL-3 R/B                
1 12904U 81103B   26194.80475976  .00002315  00000+0  98728-4 0  9995
2 12904  81.1574  65.3568 0011964 216.8241 143.2171 15.22482364992413
SL-3 R/B                
1 13068U 82013B   26194.83367067  .00002533  00000+0  10599-3 0  9993
2 13068  81.1732  12.7736 0022878 112.8597 247.5054 15.22956171423542
SL-3 R/B                
1 13154U 82039B   26194.79508860  .00001795  00000+0  10604-3 0  9996
2 13154  81.1508  70.3484 0028154 263.2463  96.5558 15.10693489400672
SL-3 R/B                
1 13403U 82079B   26194.80560753  .00003168  00000+0  12110-3 0  9998
2 13403  81.1446  43.9950 0024939  98.0913 262.3151 15.26005654396927
SL-14 R/B               
1 13553U 82092B   26194.63810649  .00000225  00000+0  22412-4 0  9990
2 13553  82.5668  23.5479 0018918 241.2288 188.1647 14.86764255347645
SL-3 R/B                
1 13819U 83010B   26194.47015147  .00008152  00000+0  14503-3 0  9996
2 13819  81.0994 207.5772 0013446 330.1971  29.8508 15.49879793377402
SL-3 R/B                
1 14208U 83075B   26194.82695656  .00006472  00000+0  15806-3 0  9998
2 14208  97.6102 204.4286 0022069 134.2707 226.0355 15.40963338349563
COSMOS 1536             
1 14699U 84013A   26194.86463727  .00003723  00000+0  14607-3 0  9995
2 14699  82.5454 342.2668 0013794 193.0076 167.0808 15.25334990291845
SL-14 R/B               
1 14820U 84027B   26194.87889252  .00000212  00000+0  21389-4 0  9998
2 14820  82.5430 126.6881 0016328 276.3370  83.5987 14.86078587266377
SL-8 R/B                
1 15483U 85006B   26194.88000888  .00000135  00000+0  53521-4 0  9990
2 15483  74.0452  28.9415 0019265 272.1699 189.0128 14.37844887172163
