OBJECT_NAME,OBJECT_ID,EPOCH,MEAN_MOTION,ECCENTRICITY,INCLINATION,RA_OF_ASC_NODE,ARG_OF_PERICENTER,MEAN_ANOMALY,EPHEMERIS_TYPE,CLASSIFICATION_TYPE,NORAD_CAT_ID,ELEMENT_SET_NO,REV_AT_EPOCH,BSTAR,MEAN_MOTION_DOT,MEAN_MOTION_DDOT
ATLAS CENTAUR 2,1963-047A,2026-07-13T08:38:15.582048,14.12563263,.0545699,30.3509,213.0218,108.3355,257.7366,0,U,694,999,14940,.72298E-4,.685E-5,0
THOR AGENA D R/B,1964-002A,2026-07-13T16:04:34.594176,14.34075612,.0031792,99.1155,214.8301,251.1661,108.6073,0,U,733,999,25635,.4344E-4,.73E-6,0
SL-3 R/B,1964-053B,2026-07-13T17:51:49.565088,14.61439092,.0080317,65.0780,321.6431,252.7711,106.4587,0,U,877,999,28521,.30578E-4,.32E-6,0
SL-8 R/B,1967-045B,2026-07-13T20:47:04.039008,14.45694984,.0063011,74.0111,112.4317,89.4583,271.3794,0,U,2802,999,10725,.39918E-4,.117E-5,0
SL-8 R/B,1968-040B,2026-07-13T19:00:49.661280,15.03936370,.0025149,74.0292,55.8744,204.2762,155.7244,0,U,3230,999,10896,.91036E-4,.122E-4,0
OAO 2,1968-110A,2026-07-13T08:06:36.273312,14.47361414,.000495,34.9935,283.6648,128.4638,231.6497,0,U,3597,999,3731,.31854705E-4,.99E-6,0
ISIS 1,1969-009A,2026-07-13T20:02:15.092160,11.30436447,.1707124,88.4450,141.4735,194.4010,160.1877,0,U,3669,999,36278,.17934E-4,.35E-6,0
SERT 2,1970-009A,2026-07-13T18:19:55.299072,13.58740904,.0004478,99.2840,131.0509,192.8831,228.5575,0,U,4327,999,79701,.24299E-4,-.24E-6,0
SL-3 R/B,1971-028B,2026-07-13T19:21:16.015104,15.72356815,.0014588,81.2313,254.9669,186.7102,173.3964,0,U,5118,999,842,.29329E-3,.39226E-3,0
ASTEX 1,1971-089A,2026-07-13T13:21:17.841600,14.50870752,.0016548,92.7004,192.3482,27.6183,332.5898,0,U,5560,999,88055,.52736E-4,.207E-5,0
SL-8 R/B,1971-119B,2026-07-13T16:51:09.306720,14.39721678,.0542819,73.8887,299.7520,240.3836,114.2207,0,U,5730,999,67361,.20355E-3,.3953E-4,0
OAO 3 (COPERNICUS),1972-065A,2026-07-13T08:31:32.086272,14.60074280,.00059488,35.0062,301.3016,109.9719,291.6079,0,U,6153,999,86457,.33641183E-4,.143E-5,0
ATLAS CENTAUR R/B,1972-065B,2026-07-13T16:35:56.545152,14.77964526,.0033703,35.0017,287.1560,350.0814,9.9219,0,U,6155,999,85991,.53144E-4,.368E-5,0
SL-8 R/B,1975-112B,2026-07-13T21:21:13.758048,14.38257777,.0016254,74.0606,146.7498,209.8592,150.1637,0,U,8459,999,65001,.47189E-4,.117E-5,0
SL-3 R/B,1977-057B,2026-07-13T18:46:28.383744,15.48393200,.0007045,97.5845,12.6226,175.1832,184.9487,0,U,10114,999,68782,.12473E-3,.6513E-4,0
SEASAT 1,1978-064A,2026-07-13T12:33:36.887040,14.46259595,.0001131,108.0181,29.5752,253.8815,106.2206,0,U,10967,999,52470,.47848E-4,.34E-6,0
SL-14 R/B,1979-011B,2026-07-13T20:48:50.908032,14.92037402,.0015914,82.5253,336.8329,1.6101,358.5167,0,U,11267,999,54759,.22145E-4,.251E-5,0
SL-8 R/B,1979-089B,2026-07-13T15:06:53.476704,14.42414308,.0015925,74.0670,217.9069,353.0105,7.0827,0,U,11574,999,45426,.32439E-4,.81E-6,0
SL-14 R/B,1980-005B,2026-07-13T11:51:00.342144,14.91049174,.00173067,82.5136,187.8854,102.7051,257.6104,0,U,11672,999,49523,.27658416E-4,.3E-5,0
SL-8 R/B,1981-003B,2026-07-13T10:43:25.061376,15.15024290,.02501482,82.9359,173.3607,99.6742,263.2844,0,U,12139,999,33369,.27796156E-3,.11717E-3,0
SL-3 R/B,1981-046B,2026-07-13T21:09:40.965696,15.44761200,.0015836,81.2314,137.8990,302.2368,57.7341,0,U,12465,999,45789,.15972E-3,.7533E-4,0
SL-3 R/B,1981-103B,2026-07-13T19:18:51.243264,15.22482364,.0011964,81.1574,65.3568,216.8241,143.2171,0,U,12904,999,99241,.98728E-4,.2315E-4,0
SL-3 R/B,1982-013B,2026-07-13T20:00:29.145888,15.22956171,.0022878,81.1732,12.7736,112.8597,247.5054,0,U,13068,999,42354,.10599E-3,.2533E-4,0
SL-3 R/B,1982-039B,2026-07-13T19:04:55.655040,15.10693489,.0028154,81.1508,70.3484,263.2463,96.5558,0,U,13154,999,40067,.10604E-3,.1795E-4,0
SL-3 R/B,1982-079B,2026-07-13T19:20:04.490592,15.26005654,.0024939,81.1446,43.9950,98.0913,262.3151,0,U,13403,999,39692,.1211E-3,.3168E-4,0
SL-14 R/B,1982-092B,2026-07-13T15:18:52.400736,14.86764255,.0018918,82.5668,23.5479,241.2288,188.1647,0,U,13553,999,34764,.22412E-4,.225E-5,0
SL-3 R/B,1983-010B,2026-07-13T11:17:01.087008,15.49879793,.00134467,81.0994,207.5772,330.1971,29.8508,0,U,13819,999,37740,.14502879E-3,.8152E-4,0
SL-3 R/B,1983-075B,2026-07-13T19:50:49.046784,15.40963338,.0022069,97.6102,204.4286,134.2707,226.0355,0,U,14208,999,34956,.15806E-3,.6472E-4,0
COSMOS 1536,1984-013A,2026-07-13T20:45:04.660128,15.25334990,.0013794,82.5454,342.2668,193.0076,167.0808,0,U,14699,999,29184,.14607E-3,.3723E-4,0
SL-14 R/B,1984-027B,2026-07-13T21:05:36.313728,14.86078587,.0016328,82.5430,126.6881,276.3370,83.5987,0,U,14820,999,26637,.21389E-4,.212E-5,0
SL-8 R/B,1985-006B,2026-07-13T21:07:12.767232,14.37844887,.0019265,74.0452,28.9415,272.1699,189.0128,0,U,15483,999,17216,.53521E-4,.135E-5,0
